NORAD_CAT_ID,OBJECT_NAME,OBJECT_TYPE,EPOCH,MEAN_MOTION,ECCENTRICITY,INCLINATION,RA_OF_ASC_NODE,ARG_OF_PERICENTER,MEAN_ANOMALY,BSTAR,MEAN_MOTION_DOT,MEAN_MOTION_DDOT,TLE_LINE0,TLE_LINE1,TLE_LINE2,SEMIMAJOR_AXIS,PERIOD,APOGEE,PERIGEE,DECAYED
51964.0,STARLINK-3690,PAYLOAD,2022-05-05 06:00:00,15.55965778,0.0001732,53.2175,219.9466,38.2406,217.4833,-0.010995,-0.00712118,0.0,0 STARLINK-3690,1 51964U 22025J   22125.25001157 -.00712118  00000-0 -10995-1 0  9996,2 51964  53.2175 219.9466 0001732  38.2406 217.4833 15.55965778 10189,6777.484,92.547,400.523,398.175,0.0
51964.0,STARLINK-3690,PAYLOAD,2022-05-05 14:00:01,15.55456535,0.0002088,53.2176,218.3423,20.3149,303.3166,-0.011246,-0.00714557,0.0,0 STARLINK-3690,1 51964U 22025J   22125.58334491 -.00714557  00000-0 -11246-1 0  9991,2 51964  53.2176 218.3423 0002088  20.3149 303.3166 15.55456535  3718,6778.9630000000025,92.577,402.24300000000005,399.412,0.0
51964.0,STARLINK-3690,PAYLOAD,2022-05-05 22:00:00,15.54946954,0.0001403,53.2175,216.736,41.7536,349.1742,-0.011465,-0.00714687,0.0,0 STARLINK-3690,1 51964U 22025J   22125.91667824 -.00714687  00000-0 -11465-1 0  9994,2 51964  53.2175 216.7360 0001403  41.7536 349.1742 15.54946954  3699,6780.444,92.608,403.26,401.358,0.0
51964.0,STARLINK-3690,PAYLOAD,2022-05-06 08:00:01,15.54245136,0.0001626,53.2167,214.7292,40.9623,163.2561,-0.010183,-0.00625632,0.0,0 STARLINK-3690,1 51964U 22025J   22126.33334491 -.00625632  00000-0 -10183-1 0  9999,2 51964  53.2167 214.7292 0001626  40.9623 163.2561 15.54245136 10356,6782.485,92.649,405.453,403.247,0.0
51964.0,STARLINK-3690,PAYLOAD,2022-05-06 14:00:01,15.53926204,0.0001893,53.2176,213.5301,36.3635,127.3174,-0.011871,-0.00712939,0.0,0 STARLINK-3690,1 51964U 22025J   22126.58334491 -.00712939  00000-0 -11871-1 0  9998,2 51964  53.2176 213.5301 0001893  36.3635 127.3174 15.53926204  3727,6783.413000000001,92.668,406.562,403.994,0.0
51964.0,STARLINK-3690,PAYLOAD,2022-05-06 22:00:00,15.53418218,0.0001614,53.2174,211.9272,45.1846,183.9541,-0.012164,-0.00716667,0.0,0 STARLINK-3690,1 51964U 22025J   22126.91667824 -.00716667  00000-0 -12164-1 0  9992,2 51964  53.2174 211.9272 0001614  45.1846 183.9541 15.53418218 10441,6784.892,92.699,407.852,405.661,0.0
51964.0,STARLINK-3690,PAYLOAD,2022-05-07 14:00:01,15.52397809,0.0001557,53.2175,208.7291,38.9093,319.3054,-0.012604,-0.00715586,0.0,0 STARLINK-3690,1 51964U 22025J   22127.58334491 -.00715586  00000-0 -12604-1 0  9995,2 51964  53.2175 208.7291 0001557  38.9093 319.3054 15.52397809  3758,6787.864000000001,92.76,410.786,408.673,0.0
51964.0,STARLINK-3690,PAYLOAD,2022-05-07 22:00:00,15.51886611,0.0001478,53.2174,207.1299,39.5037,22.3314,-0.012793,-0.00713198,0.0,0 STARLINK-3690,1 51964U 22025J   22127.91667824 -.00713198  00000-0 -12793-1 0  9997,2 51964  53.2174 207.1299 0001478  39.5037  22.3314 15.51886611  3703,6789.355,92.79,412.223,410.217,0.0
51964.0,STARLINK-3690,PAYLOAD,2022-05-08 06:00:00,15.5137538,0.0001768,53.2175,205.5324,35.9051,88.9372,-0.01298,-0.00710687,0.0,0 STARLINK-3690,1 51964U 22025J   22128.25001157 -.00710687  00000-0 -12980-1 0  9994,2 51964  53.2175 205.5324 0001768  35.9051  88.9372 15.51375380 10642,6790.846,92.821,413.912,411.511,0.0
51964.0,STARLINK-3690,PAYLOAD,2022-05-08 14:00:01,15.50865128,0.0001933,53.2174,203.9388,35.9451,151.2898,-0.013212,-0.00719374,0.0,0 STARLINK-3690,1 51964U 22025J   22128.58334491 -.00719374  00000-0 -13212-1 0  9991,2 51964  53.2174 203.9388 0001933  35.9451 151.2898 15.50865128  3698,6792.3359999999975,92.851,415.514,412.888,0.0
51964.0,STARLINK-3690,PAYLOAD,2022-05-08 22:00:00,15.50278159,0.0001635,53.2175,202.3428,45.5239,203.5072,-0.0094735,-0.00511561,0.0,0 STARLINK-3690,1 51964U 22025J   22128.91667824 -.00511561  00000-0 -94735-2 0  9995,2 51964  53.2175 202.3428 0001635  45.5239 203.5072 15.50278159  3694,6794.05,92.887,417.026,414.804,0.0
51964.0,STARLINK-3690,PAYLOAD,2022-05-09 06:00:00,15.4988646,0.0001766,53.2177,200.749,39.5648,270.624,-1.7114000000000006e-05,-1.423e-05,0.0,0 STARLINK-3690,1 51964U 22025J   22129.25001157 -.00001423  00000-0 -17114-4 0  9993,2 51964  53.2177 200.7490 0001766  39.5648 270.6240 15.49886460 10800,6795.195,92.91,418.26,415.86,0.0
51964.0,STARLINK-3690,PAYLOAD,2022-05-09 14:00:01,15.49818696,0.0002232,53.2159,199.1531,44.687,326.4763,0.00063531,0.00035687,0.0,0 STARLINK-3690,1 51964U 22025J   22129.58335648  .00035687  00000-0  63531-3 0  9994,2 51964  53.2159 199.1531 0002232  44.6870 326.4763 15.49818696 10851,6795.393,92.914,418.775,415.741,0.0
51964.0,STARLINK-3690,PAYLOAD,2022-05-09 22:00:00,15.49845308,0.0002095,53.2148,197.556,47.164,24.7891,-3.4248e-05,-2.392e-05,0.0,0 STARLINK-3690,1 51964U 22025J   22129.91667824 -.00002392  00000-0 -34248-4 0  9998,2 51964  53.2148 197.5560 0002095  47.1640  24.7891 15.49845308  3697,6795.315,92.912,418.604,415.757,0.0
51964.0,STARLINK-3690,PAYLOAD,2022-05-10 14:00:01,15.49827405,0.0002248,53.2146,194.3719,43.6704,150.0412,0.0014523,0.00082684,0.0,0 STARLINK-3690,1 51964U 22025J   22130.58334491  .00082684  00000-0  14523-2 0  9996,2 51964  53.2146 194.3719 0002248  43.6704 150.0412 15.49827405 11013,6795.368,92.914,418.76,415.705,0.0
51964.0,STARLINK-3690,PAYLOAD,2022-05-10 18:00:00,15.49851262,0.0002157,53.214,193.5747,43.1447,1.0006,0.0017802,0.00101789,0.0,0 STARLINK-3690,1 51964U 22025J   22130.75001157  .00101789  00000-0  17802-2 0  9996,2 51964  53.2140 193.5747 0002157  43.1447   1.0006 15.49851262  3683,6795.2980000000025,92.912,418.629,415.697,0.0
51964.0,STARLINK-3690,PAYLOAD,2022-05-11 22:00:00,15.499631699999998,0.0001895,53.2152,187.9978,42.7541,34.7861,0.00023107,0.0001272,0.0,0 STARLINK-3690,1 51964U 22025J   22131.91667824  .00012720  00000-0  23107-3 0  9996,2 51964  53.2152 187.9978 0001895  42.7541  34.7861 15.49963170 11219,6794.971,92.905,418.12300000000016,415.548,0.0
51964.0,STARLINK-3690,PAYLOAD,2022-05-12 06:00:00,15.50190144,0.0001942,53.2162,186.4072,46.5684,91.9374,-0.012018,-0.00636705,0.0,0 STARLINK-3690,1 51964U 22025J   22132.25001157 -.00636705  00000-0 -12018-1 0  9999,2 51964  53.2162 186.4072 0001942  46.5684  91.9374 15.50190144 11266,6794.307,92.892,417.492,414.853,0.0
51964.0,STARLINK-3690,PAYLOAD,2022-05-12 14:00:01,15.49601022,0.0001698,53.217,184.8188,43.7107,155.8317,-0.0022053,-0.00122449,0.0,0 STARLINK-3690,1 51964U 22025J   22132.58334491 -.00122449  00000-0 -22053-2 0  9991,2 51964  53.2170 184.8188 0001698  43.7107 155.8317 15.49601022  1303,6796.029,92.927,419.048,416.74,0.0
51964.0,STARLINK-3690,PAYLOAD,2022-05-12 20:00:01,15.4965229,0.0001841,53.2175,183.6248,34.9345,120.0145,-0.0138729999999999,-0.00723072,0.0,0 STARLINK-3690,1 51964U 22025J   22132.83334491 -.00723072  00000-0 -13873-1 0  9997,2 51964  53.2175 183.6248 0001841  34.9345 120.0145 15.49652290 11350,6795.879,92.924,418.996,416.49300000000005,0.0
51964.0,STARLINK-3690,PAYLOAD,2022-05-12 22:00:00,15.49523526,0.0001688,53.2177,183.2263,39.1289,220.9585,-0.01389,-0.00720807,0.0,0 STARLINK-3690,1 51964U 22025J   22132.91667824 -.00720807  00000-0 -13890-1 0  9997,2 51964  53.2177 183.2263 0001688  39.1289 220.9585 15.49523526  1309,6796.255999999999,92.932,419.268,416.974,0.0
51964.0,STARLINK-3690,PAYLOAD,2022-05-13 14:00:01,15.48501923,0.000181,53.2175,180.0474,29.2213,350.5879,-0.014339,-0.00717961,0.0,0 STARLINK-3690,1 51964U 22025J   22133.58334491 -.00717961  00000-0 -14339-1 0  9998,2 51964  53.2175 180.0474 0001810  29.2213 350.5879 15.48501923  1302,6799.245,92.993,422.34,419.879,0.0
51964.0,STARLINK-3690,PAYLOAD,2022-05-13 22:00:00,15.47992109,0.0001941,53.2176,178.4569,26.0756,52.6769,-0.014609,-0.00718471,0.0,0 STARLINK-3690,1 51964U 22025J   22133.91667824 -.00718471  00000-0 -14609-1 0  9991,2 51964  53.2176 178.4569 0001941  26.0756  52.6769 15.47992109 11523,6800.738,93.024,423.923,421.282,0.0
51964.0,STARLINK-3690,PAYLOAD,2022-05-14 14:00:01,15.46971011,0.0001393,53.2173,175.2852,25.8744,168.9231,-0.015097,-0.00716497,0.0,0 STARLINK-3690,1 51964U 22025J   22134.58334491 -.00716497  00000-0 -15097-1 0  9994,2 51964  53.2173 175.2852 0001393  25.8744 168.9231 15.46971011  1303,6803.73,93.085,426.543,424.647,0.0
51964.0,STARLINK-3690,PAYLOAD,2022-05-14 22:00:00,15.4646226,0.0001611,53.2175,173.6982,43.2926,208.609,-0.015396,-0.0071781,0.0,0 STARLINK-3690,1 51964U 22025J   22134.91667824 -.00717810  00000-0 -15396-1 0  9992,2 51964  53.2175 173.6982 0001611  43.2926 208.6090 15.46462260 11688,6805.222,93.116,428.1830000000001,425.991,0.0
51964.0,STARLINK-3690,PAYLOAD,2022-05-15 14:00:01,15.45442619,0.0001221,53.2173,170.53400000000005,54.8388,309.4946,-0.015949,-0.00717773,0.0,0 STARLINK-3690,1 51964U 22025J   22135.58335648 -.00717773  00000-0 -15949-1 0  9994,2 51964  53.2173 170.5340 0001221  54.8388 309.4946 15.45442619  1300,6808.215,93.177,430.911,429.249,0.0
51964.0,STARLINK-3690,PAYLOAD,2022-05-15 22:00:00,15.44931904,0.0001455,53.2174,168.9508,40.9414,18.5948,-0.016225,-0.00717536,0.0,0 STARLINK-3690,1 51964U 22025J   22135.91667824 -.00717536  00000-0 -16225-1 0  9990,2 51964  53.2174 168.9508 0001455  40.9414  18.5948 15.44931904 11831,6809.715,93.208,432.571,430.589,0.0
51964.0,STARLINK-3690,PAYLOAD,2022-05-16 14:00:01,15.43912009,0.0001486999999999,53.2172,165.7938,53.0834,115.1435,-0.016784,-0.00716867,0.0,0 STARLINK-3690,1 51964U 22025J   22136.58334491 -.00716867  00000-0 -16784-1 0  9991,2 51964  53.2172 165.7938 0001487  53.0834 115.1435 15.43912009  1307,6812.714,93.27,435.592,433.566,0.0
51964.0,STARLINK-3690,PAYLOAD,2022-05-16 22:00:00,15.43401934,0.0001661,53.2173,164.21400000000003,43.7494,177.9058,-0.017071,-0.00716628,0.0,0 STARLINK-3690,1 51964U 22025J   22136.91667824 -.00716628  00000-0 -17071-1 0  9992,2 51964  53.2173 164.2140 0001661  43.7494 177.9058 15.43401934 11992,6814.215,93.3,437.212,434.948,0.0
